{"type": "FeatureCollection", "features": [ {"type": "Feature", "properties": {"norad_id": 43107, "name": "BEIDOU-3 M7 (C27)", "group": "gnss", "lat": 53.45536346340834, "lon": 54.44456990211072, "alt_km": 21515.275810305866, "timestamp": "2025-12-14T18:52:55.746571+00:00", "meta": {"OBJECT_NAME": "BEIDOU-3 M7 (C27)", "OBJECT_ID": "2018-003A", "EPOCH": "2025-12-10T08:14:11.609952", "MEAN_MOTION": 1.86232173, "ECCENTRICITY": 0.00026083, "INCLINATION": 54.4988, "RA_OF_ASC_NODE": 308.8983, "ARG_OF_PERICENTER": 70.7786, "MEAN_ANOMALY": 289.2405, "EPHEMERIS_TYPE": 0, "CLASSIFICATION_TYPE": "U", "NORAD_CAT_ID": 43107, "ELEMENT_SET_NO": 999, "REV_AT_EPOCH": 5383, "BSTAR": 0, "MEAN_MOTION_DOT": -8.2e-07, "MEAN_MOTION_DDOT": 0}, "tle": {"line1": "1 43107U 18003A   25344.34318993 -.00000082  00000+0  00000+0 0  9994", "line2": "2 43107  54.4988 308.8983 0002608  70.7786 289.2405  1.86232173 53837"}}, "geometry": {"type": "Point", "coordinates": [54.44456990211072, 53.45536346340834]}}, {"type": "Feature", "properties": {"norad_id": 43108, "name": "BEIDOU-3 M8 (C28)", "group": "gnss", "lat": 34.36690502666258, "lon": 99.49469101102623, "alt_km": 21533.865366103655, "timestamp": "2025-12-14T18:52:55.746583+00:00", "meta": {"OBJECT_NAME": "BEIDOU-3 M8 (C28)", "OBJECT_ID": "2018-003B", "EPOCH": "2025-12-11T21:34:27.940800", "MEAN_MOTION": 1.86230629, "ECCENTRICITY": 0.00047751, "INCLINATION": 54.4899, "RA_OF_ASC_NODE": 308.8263, "ARG_OF_PERICENTER": 274.4182, "MEAN_ANOMALY": 85.5183, "EPHEMERIS_TYPE": 0, "CLASSIFICATION_TYPE": "U", "NORAD_CAT_ID": 43108, "ELEMENT_SET_NO": 999, "REV_AT_EPOCH": 5387, "BSTAR": 0, "MEAN_MOTION_DOT": -9e-07, "MEAN_MOTION_DDOT": 0}, "tle": {"line1": "1 43108U 18003B   25345.89893450 -.00000090  00000+0  00000+0 0  9991", "line2": "2 43108  54.4899 308.8263 0004775 274.4182  85.5183  1.86230629 53878"}}, "geometry": {"type": "Point", "coordinates": [99.49469101102623, 34.36690502666258]}}, {"type": "Feature", "properties": {"norad_id": 43207, "name": "BEIDOU-3 M4 (C22)", "group": "gnss", "lat": -16.477102238750145, "lon": -99.47072278188107, "alt_km": 21541.687894063172, "timestamp": "2025-12-14T18:52:55.746609+00:00", "meta": {"OBJECT_NAME": "BEIDOU-3 M4 (C22)", "OBJECT_ID": "2018-018A", "EPOCH": "2025-12-13T09:57:17.275392", "MEAN_MOTION": 1.86231174, "ECCENTRICITY": 0.00041262, "INCLINATION": 56.4868, "RA_OF_ASC_NODE": 69.2813, "ARG_OF_PERICENTER": 7.8207, "MEAN_ANOMALY": 352.2039, "EPHEMERIS_TYPE": 0, "CLASSIFICATION_TYPE": "U", "NORAD_CAT_ID": 43207, "ELEMENT_SET_NO": 999, "REV_AT_EPOCH": 5328, "BSTAR": 0, "MEAN_MOTION_DOT": -7.8e-07, "MEAN_MOTION_DDOT": 0}, "tle": {"line1": "1 43207U 18018A   25347.41478328 -.00000078  00000+0  00000+0 0  9996", "line2": "2 43207  56.4868  69.2813 0004126   7.8207 352.2039  1.86231174 53286"}}, "geometry": {"type": "Point", "coordinates": [-99.47072278188107, -16.477102238750145]}}, {"type": "Feature", "properties": {"norad_id": 43208, "name": "BEIDOU-3 M3 (C21)", "group": "gnss", "lat": 20.463990705470625, "lon": -125.04799454611555, "alt_km": 21543.028453554693, "timestamp": "2025-12-14T18:52:55.746623+00:00", "meta": {"OBJECT_NAME": "BEIDOU-3 M3 (C21)", "OBJECT_ID": "2018-018B", "EPOCH": "2025-12-10T19:07:00.567840", "MEAN_MOTION": 1.8623124, "ECCENTRICITY": 0.0006564, "INCLINATION": 56.484, "RA_OF_ASC_NODE": 69.3721, "ARG_OF_PERICENTER": 317.0111, "MEAN_ANOMALY": 42.9593, "EPHEMERIS_TYPE": 0, "CLASSIFICATION_TYPE": "U", "NORAD_CAT_ID": 43208, "ELEMENT_SET_NO": 999, "REV_AT_EPOCH": 5323, "BSTAR": 0, "MEAN_MOTION_DOT": -5.7e-07, "MEAN_MOTION_DDOT": 0}, "tle": {"line1": "1 43208U 18018B   25344.79653435 -.00000057  00000+0  00000+0 0  9996", "line2": "2 43208  56.4840  69.3721 0006564 317.0111  42.9593  1.86231240 53231"}}, "geometry": {"type": "Point", "coordinates": [-125.04799454611555, 20.463990705470625]}}, {"type": "Feature", "properties": {"norad_id": 43245, "name": "BEIDOU-3 M9 (C29)", "group": "gnss", "lat": 8.34727179701922, "lon": -47.586718471420916, "alt_km": 21527.381671227675, "timestamp": "2025-12-14T18:52:55.746635+00:00", "meta": {"OBJECT_NAME": "BEIDOU-3 M9 (C29)", "OBJECT_ID": "2018-029A", "EPOCH": "2025-12-13T16:44:23.326080", "MEAN_MOTION": 1.86228191, "ECCENTRICITY": 0.00015381, "INCLINATION": 54.3645, "RA_OF_ASC_NODE": 306.4337, "ARG_OF_PERICENTER": 281.6708, "MEAN_ANOMALY": 78.3012, "EPHEMERIS_TYPE": 0, "CLASSIFICATION_TYPE": "U", "NORAD_CAT_ID": 43245, "ELEMENT_SET_NO": 999, "REV_AT_EPOCH": 5244, "BSTAR": 0, "MEAN_MOTION_DOT": -9.8e-07, "MEAN_MOTION_DDOT": 0}, "tle": {"line1": "1 43245U 18029A   25347.69749220 -.00000098  00000+0  00000+0 0  9994", "line2": "2 43245  54.3645 306.4337 0001538 281.6708  78.3012  1.86228191 52446"}}, "geometry": {"type": "Point", "coordinates": [-47.586718471420916, 8.34727179701922]}}, {"type": "Feature", "properties": {"norad_id": 43246, "name": "BEIDOU-3 M10 (C30)", "group": "gnss", "lat": 40.949785421333594, "lon": -15.126173582510173, "alt_km": 21516.53436811366, "timestamp": "2025-12-14T18:52:55.746646+00:00", "meta": {"OBJECT_NAME": "BEIDOU-3 M10 (C30)", "OBJECT_ID": "2018-029B", "EPOCH": "2025-12-13T02:17:56.021856", "MEAN_MOTION": 1.86228806, "ECCENTRICITY": 0.00040465, "INCLINATION": 54.3625, "RA_OF_ASC_NODE": 306.4821, "ARG_OF_PERICENTER": 0.6072, "MEAN_ANOMALY": 359.3832, "EPHEMERIS_TYPE": 0, "CLASSIFICATION_TYPE": "U", "NORAD_CAT_ID": 43246, "ELEMENT_SET_NO": 999, "REV_AT_EPOCH": 5241, "BSTAR": 0, "MEAN_MOTION_DOT": -9.6e-07, "MEAN_MOTION_DDOT": 0}, "tle": {"line1": "1 43246U 18029B   25347.09578729 -.00000096  00000+0  00000+0 0  9991", "line2": "2 43246  54.3625 306.4821 0004046   0.6072 359.3832  1.86228806 52415"}}, "geometry": {"type": "Point", "coordinates": [-15.126173582510173, 40.949785421333594]}}, {"type": "Feature", "properties": {"norad_id": 43286, "name": "IRNSS-1I", "group": "gnss", "lat": -7.255507314766774, "lon": 63.85424002493375, "alt_km": 35875.50129498567, "timestamp": "2025-12-14T18:52:55.746668+00:00", "meta": {"OBJECT_NAME": "IRNSS-1I", "OBJECT_ID": "2018-035A", "EPOCH": "2025-12-10T20:46:45.825888", "MEAN_MOTION": 1.00270473, "ECCENTRICITY": 0.0021801, "INCLINATION": 29.146, "RA_OF_ASC_NODE": 77.1264, "ARG_OF_PERICENTER": 181.9029, "MEAN_ANOMALY": 187.524, "EPHEMERIS_TYPE": 0, "CLASSIFICATION_TYPE": "U", "NORAD_CAT_ID": 43286, "ELEMENT_SET_NO": 999, "REV_AT_EPOCH": 2819, "BSTAR": 0, "MEAN_MOTION_DOT": 8.2e-07, "MEAN_MOTION_DDOT": 0}, "tle": {"line1": "1 43286U 18035A   25344.86580817  .00000082  00000+0  00000+0 0  9999", "line2": "2 43286  29.1460  77.1264 0021801 181.9029 187.5240  1.00270473 28197"}}, "geometry": {"type": "Point", "coordinates": [63.85424002493375, -7.255507314766774]}}, {"type": "Feature", "properties": {"norad_id": 43508, "name": "COSMOS 2527 (756)", "group": "gnss", "lat": 65.28692493023118, "lon": 177.95725579937667, "alt_km": 19137.686115220033, "timestamp": "2025-12-14T18:52:55.746696+00:00", "meta": {"OBJECT_NAME": "COSMOS 2527 (756)", "OBJECT_ID": "2018-053A", "EPOCH": "2025-12-13T17:26:08.291904", "MEAN_MOTION": 2.13102046, "ECCENTRICITY": 0.00086624, "INCLINATION": 65.4732, "RA_OF_ASC_NODE": 80.0985, "ARG_OF_PERICENTER": 225.2125, "MEAN_ANOMALY": 134.7297, "EPHEMERIS_TYPE": 0, "CLASSIFICATION_TYPE": "U", "NORAD_CAT_ID": 43508, "ELEMENT_SET_NO": 999, "REV_AT_EPOCH": 5832, "BSTAR": 0, "MEAN_MOTION_DOT": -4.9e-07, "MEAN_MOTION_DDOT": 0}, "tle": {"line1": "1 43508U 18053A   25347.72648486 -.00000049  00000+0  00000+0 0  9995", "line2": "2 43508  65.4732  80.0985 0008662 225.2125 134.7297  2.13102046 58320"}}, "geometry": {"type": "Point", "coordinates": [177.95725579937667, 65.28692493023118]}}, {"type": "Feature", "properties": {"norad_id": 43539, "name": "BEIDOU-2 IGSO-7 (C16)", "group": "gnss", "lat": -36.102141283894866, "lon": 134.0915491927027, "alt_km": 35716.372493688534, "timestamp": "2025-12-14T18:52:55.746725+00:00", "meta": {"OBJECT_NAME": "BEIDOU-2 IGSO-7 (C16)", "OBJECT_ID": "2018-057A", "EPOCH": "2025-12-13T21:43:45.803136", "MEAN_MOTION": 1.00256887, "ECCENTRICITY": 0.00923973, "INCLINATION": 55.1758, "RA_OF_ASC_NODE": 164.6607, "ARG_OF_PERICENTER": 235.1935, "MEAN_ANOMALY": 119.7561, "EPHEMERIS_TYPE": 0, "CLASSIFICATION_TYPE": "U", "NORAD_CAT_ID": 43539, "ELEMENT_SET_NO": 999, "REV_AT_EPOCH": 2726, "BSTAR": 0, "MEAN_MOTION_DOT": -2.9e-07, "MEAN_MOTION_DDOT": 0}, "tle": {"line1": "1 43539U 18057A   25347.90539124 -.00000029  00000+0  00000+0 0  9999", "line2": "2 43539  55.1758 164.6607 0092397 235.1935 119.7561  1.00256887 27269"}}, "geometry": {"type": "Point", "coordinates": [134.0915491927027, -36.102141283894866]}}, {"type": "Feature", "properties": {"norad_id": 43564, "name": "GSAT0221 (GALILEO 25)", "group": "gnss", "lat": -43.843039148200376, "lon": -51.46391390127978, "alt_km": 23208.517049908747, "timestamp": "2025-12-14T18:52:55.746748+00:00", "meta": {"OBJECT_NAME": "GSAT0221 (GALILEO 25)", "OBJECT_ID": "2018-060A", "EPOCH": "2025-12-13T16:53:40.160256", "MEAN_MOTION": 1.70475883, "ECCENTRICITY": 0.00067122, "INCLINATION": 57.2276, "RA_OF_ASC_NODE": 346.7914, "ARG_OF_PERICENTER": 283.6018, "MEAN_ANOMALY": 76.3423, "EPHEMERIS_TYPE": 0, "CLASSIFICATION_TYPE": "U", "NORAD_CAT_ID": 43564, "ELEMENT_SET_NO": 999, "REV_AT_EPOCH": 4600, "BSTAR": 0, "MEAN_MOTION_DOT": -8.5e-07, "MEAN_MOTION_DDOT": 0}, "tle": {"line1": "1 43564U 18060A   25347.70393704 -.00000085  00000+0  00000+0 0  9993", "line2": "2 43564  57.2276 346.7914 0006712 283.6018  76.3423  1.70475883 46009"}}, "geometry": {"type": "Point", "coordinates": [-51.46391390127978, -43.843039148200376]}}]}